{
  "type": "FeatureCollection",
  "features": [
    {
      "type": "Feature",
      "properties": {
        "norad_id": 29954,
        "name": "FENGYUN 1C DEB",
        "group": "fengyun-1c-debris",
        "lat": 16.11866224699768,
        "lon": -141.0603860338551,
        "alt_km": 767.4444761045515,
        "timestamp": "2025-12-22T05:49:03.772152+00:00",
        "meta_object_name": "FENGYUN 1C DEB",
        "meta_object_id": "1999-025KC",
        "meta_epoch": "2025-12-21T08:57:34.160256",
        "meta_mean_motion": 14.34268298,
        "meta_eccentricity": 0.00746061,
        "meta_inclination": 100.1502,
        "meta_ra_of_asc_node": 34.9531,
        "meta_arg_of_pericenter": 244.9047,
        "meta_mean_anomaly": 114.4377,
        "meta_ephemeris_type": 0,
        "meta_classification_type": "U",
        "meta_norad_cat_id": 29954,
        "meta_element_set_no": 999,
        "meta_rev_at_epoch": 98311,
        "meta_bstar": 0.00063918749,
        "meta_mean_motion_dot": 1.793e-05,
        "meta_mean_motion_ddot": 0,
        "tle_line1": "1 29954U 99025KC  25355.37331204  .00001793  00000+0  63919-3 0  9997",
        "tle_line2": "2 29954 100.1502  34.9531 0074606 244.9047 114.4377 14.34268298983114"
      },
      "geometry": {
        "type": "Point",
        "coordinates": [
          -141.0603860338551,
          16.11866224699768
        ]
      }
    },
    {
      "type": "Feature",
      "properties": {
        "norad_id": 29955,
        "name": "FENGYUN 1C DEB",
        "group": "fengyun-1c-debris",
        "lat": 33.202524266303605,
        "lon": 71.52471070608146,
        "alt_km": 767.6942954797496,
        "timestamp": "2025-12-22T05:49:03.772162+00:00",
        "meta_object_name": "FENGYUN 1C DEB",
        "meta_object_id": "1999-025KD",
        "meta_epoch": "2025-12-20T19:09:46.123200",
        "meta_mean_motion": 14.38304065,
        "meta_eccentricity": 0.0008068,
        "meta_inclination": 99.2737,
        "meta_ra_of_asc_node": 76.1051,
        "meta_arg_of_pericenter": 225.5959,
        "meta_mean_anomaly": 255.7337,
        "meta_ephemeris_type": 0,
        "meta_classification_type": "U",
        "meta_norad_cat_id": 29955,
        "meta_element_set_no": 999,
        "meta_rev_at_epoch": 98177,
        "meta_bstar": 0.00093089889,
        "meta_mean_motion_dot": 2.784e-05,
        "meta_mean_motion_ddot": 0,
        "tle_line1": "1 29955U 99025KD  25354.79845050  .00002784  00000+0  93090-3 0  9996",
        "tle_line2": "2 29955  99.2737  76.1051 0008068 225.5959 255.7337 14.38304065981776"
      },
      "geometry": {
        "type": "Point",
        "coordinates": [
          71.52471070608146,
          33.202524266303605
        ]
      }
    },
    {
      "type": "Feature",
      "properties": {
        "norad_id": 29956,
        "name": "FENGYUN 1C DEB",
        "group": "fengyun-1c-debris",
        "lat": 77.0827252010714,
        "lon": -17.60922652764634,
        "alt_km": 864.791884749774,
        "timestamp": "2025-12-22T05:49:03.772173+00:00",
        "meta_object_name": "FENGYUN 1C DEB",
        "meta_object_id": "1999-025KE",
        "meta_epoch": "2025-12-21T20:00:53.293824",
        "meta_mean_motion": 14.06172923,
        "meta_eccentricity": 0.0053254,
        "meta_inclination": 98.7906,
        "meta_ra_of_asc_node": 24.4239,
        "meta_arg_of_pericenter": 351.9923,
        "meta_mean_anomaly": 181.3767,
        "meta_ephemeris_type": 0,
        "meta_classification_type": "U",
        "meta_norad_cat_id": 29956,
        "meta_element_set_no": 999,
        "meta_rev_at_epoch": 97177,
        "meta_bstar": 0.00016972,
        "meta_mean_motion_dot": 2.4e-06,
        "meta_mean_motion_ddot": 0,
        "tle_line1": "1 29956U 99025KE  25355.83395016  .00000240  00000+0  16972-3 0  9994",
        "tle_line2": "2 29956  98.7906  24.4239 0053254 351.9923 181.3767 14.06172923971776"
      },
      "geometry": {
        "type": "Point",
        "coordinates": [
          -17.60922652764634,
          77.0827252010714
        ]
      }
    },
    {
      "type": "Feature",
      "properties": {
        "norad_id": 29957,
        "name": "FENGYUN 1C DEB",
        "group": "fengyun-1c-debris",
        "lat": -53.76198258710622,
        "lon": -68.58924975881021,
        "alt_km": 725.260373226005,
        "timestamp": "2025-12-22T05:49:03.772183+00:00",
        "meta_object_name": "FENGYUN 1C DEB",
        "meta_object_id": "1999-025KF",
        "meta_epoch": "2025-12-20T21:51:21.132864",
        "meta_mean_motion": 14.51369153,
        "meta_eccentricity": 0.0037148,
        "meta_inclination": 98.9205,
        "meta_ra_of_asc_node": 122.3733,
        "meta_arg_of_pericenter": 154.5353,
        "meta_mean_anomaly": 325.3729,
        "meta_ephemeris_type": 0,
        "meta_classification_type": "U",
        "meta_norad_cat_id": 29957,
        "meta_element_set_no": 999,
        "meta_rev_at_epoch": 97610,
        "meta_bstar": 0.0027917,
        "meta_mean_motion_dot": 0.00011194,
        "meta_mean_motion_ddot": 0,
        "tle_line1": "1 29957U 99025KF  25354.91066126  .00011194  00000+0  27917-2 0  9990",
        "tle_line2": "2 29957  98.9205 122.3733 0037148 154.5353 325.3729 14.51369153976109"
      },
      "geometry": {
        "type": "Point",
        "coordinates": [
          -68.58924975881021,
          -53.76198258710622
        ]
      }
    },
    {
      "type": "Feature",
      "properties": {
        "norad_id": 29958,
        "name": "FENGYUN 1C DEB",
        "group": "fengyun-1c-debris",
        "lat": -29.80510704323392,
        "lon": 15.34293003512014,
        "alt_km": 814.4080136116972,
        "timestamp": "2025-12-22T05:49:03.772194+00:00",
        "meta_object_name": "FENGYUN 1C DEB",
        "meta_object_id": "1999-025KG",
        "meta_epoch": "2025-12-21T18:04:30.203040",
        "meta_mean_motion": 14.14467888,
        "meta_eccentricity": 0.0053949,
        "meta_inclination": 98.6679,
        "meta_ra_of_asc_node": 9.8551,
        "meta_arg_of_pericenter": 307.1469,
        "meta_mean_anomaly": 52.4783,
        "meta_ephemeris_type": 0,
        "meta_classification_type": "U",
        "meta_norad_cat_id": 29958,
        "meta_element_set_no": 999,
        "meta_rev_at_epoch": 97578,
        "meta_bstar": 0.00025786,
        "meta_mean_motion_dot": 4.58e-06,
        "meta_mean_motion_ddot": 0,
        "tle_line1": "1 29958U 99025KG  25355.75312735  .00000458  00000+0  25786-3 0  9998",
        "tle_line2": "2 29958  98.6679   9.8551 0053949 307.1469  52.4783 14.14467888975784"
      },
      "geometry": {
        "type": "Point",
        "coordinates": [
          15.34293003512014,
          -29.80510704323392
        ]
      }
    },
    {
      "type": "Feature",
      "properties": {
        "norad_id": 29959,
        "name": "FENGYUN 1C DEB",
        "group": "fengyun-1c-debris",
        "lat": 18.182063574501225,
        "lon": 23.72543386038886,
        "alt_km": 866.7989928645711,
        "timestamp": "2025-12-22T05:49:03.772204+00:00",
        "meta_object_name": "FENGYUN 1C DEB",
        "meta_object_id": "1999-025KH",
        "meta_epoch": "2025-12-21T07:49:10.280352",
        "meta_mean_motion": 14.06018373,
        "meta_eccentricity": 0.0041445,
        "meta_inclination": 98.8071,
        "meta_ra_of_asc_node": 25.7529,
        "meta_arg_of_pericenter": 303.3237,
        "meta_mean_anomaly": 117.8191,
        "meta_ephemeris_type": 0,
        "meta_classification_type": "U",
        "meta_norad_cat_id": 29959,
        "meta_element_set_no": 999,
        "meta_rev_at_epoch": 97061,
        "meta_bstar": 0.00020479,
        "meta_mean_motion_dot": 2.95e-06,
        "meta_mean_motion_ddot": 0,
        "tle_line1": "1 29959U 99025KH  25355.32581343  .00000295  00000+0  20479-3 0  9998",
        "tle_line2": "2 29959  98.8071  25.7529 0041445 303.3237 117.8191 14.06018373970612"
      },
      "geometry": {
        "type": "Point",
        "coordinates": [
          23.72543386038886,
          18.182063574501225
        ]
      }
    },
    {
      "type": "Feature",
      "properties": {
        "norad_id": 29960,
        "name": "FENGYUN 1C DEB",
        "group": "fengyun-1c-debris",
        "lat": 81.16922129211622,
        "lon": -95.86968096621354,
        "alt_km": 894.6783884358256,
        "timestamp": "2025-12-22T05:49:03.772214+00:00",
        "meta_object_name": "FENGYUN 1C DEB",
        "meta_object_id": "1999-025KJ",
        "meta_epoch": "2025-12-20T21:30:20.822112",
        "meta_mean_motion": 14.16416905,
        "meta_eccentricity": 0.0090795,
        "meta_inclination": 98.6152,
        "meta_ra_of_asc_node": 340.2046,
        "meta_arg_of_pericenter": 262.6181,
        "meta_mean_anomaly": 164.4203,
        "meta_ephemeris_type": 0,
        "meta_classification_type": "U",
        "meta_norad_cat_id": 29960,
        "meta_element_set_no": 999,
        "meta_rev_at_epoch": 97570,
        "meta_bstar": 0.00031039,
        "meta_mean_motion_dot": 5.99e-06,
        "meta_mean_motion_ddot": 0,
        "tle_line1": "1 29960U 99025KJ  25354.89607433  .00000599  00000+0  31039-3 0  9991",
        "tle_line2": "2 29960  98.6152 340.2046 0090795 262.6181 164.4203 14.16416905975709"
      },
      "geometry": {
        "type": "Point",
        "coordinates": [
          -95.86968096621354,
          81.16922129211622
        ]
      }
    }
  ]
}